ONEWEB-0456             
1 51646U 22012AA  25274.49140360  .00000169  00000+0  44880-3 0  9998
2 51646  87.8743  87.8044 0001521  94.7341 265.3960 13.10370817175464
ONEWEB-0457             
1 51647U 22012AB  25274.46817737  .00000671  00000+0  18847-2 0  9996
2 51647  87.8740  87.8644 0002033  83.5156 276.6202 13.10375268175466
ONEWEB-0458             
1 51648U 22012AC  25274.41339500  .00000134  00000+0  34676-3 0  9992
2 51648  87.8730  87.8460 0001610  84.4559 275.6752 13.10370171175411
ONEWEB-0461             
1 51649U 22012AD  25274.43863089  .00000049  00000+0  93192-4 0  9993
2 51649  87.9079  57.3004 0001838  96.8947 263.2394 13.17648269179811
ONEWEB-0463             
1 51650U 22012AE  25274.42007176  .00000033  00000+0  52151-4 0  9994
2 51650  87.9067  57.3608 0001691  93.8753 266.2571 13.17648638179594
ONEWEB-0464             
1 51651U 22012AF  25274.48643324  .00000380  00000+0  10516-2 0  9994
2 51651  87.8734  87.8704 0001435  98.1152 262.0138 13.10371499175441
ONEWEB-0468             
1 51652U 22012AG  25274.49306941  .00000038  00000+0  73824-4 0  9990
2 51652  87.8733  87.8614 0001515  93.8599 266.2701 13.10370792175422
ONEWEB-0473             
1 51653U 22012AH  25274.47813872  .00000731  00000+0  20569-2 0  9991
2 51653  87.8738  87.8678 0001561  86.7557 273.3749 13.10372071175427
ONEWEB-0474             
1 51654U 22012AJ  25274.46983503  .00000621  00000+0  17431-2 0  9992
2 51654  87.8747  87.8315 0001331  89.2866 270.8414 13.10375909175415
ONEWEB-0475             
1 51655U 22012AK  25274.43188704 -.00000005  00000+0 -46055-4 0  9994
2 51655  87.9068  57.3424 0000956  81.5500 278.5739 13.17648643179614
ONEWEB-0490             
1 54113U 22138A   25274.52349887  .00000013  00000+0 -48813-6 0  9990
2 54113  87.9287 356.3985 0001739 105.3054 254.8271 13.19725409142719
ONEWEB-0492             
1 54114U 22138B   25274.47294749  .00000090  00000+0  19243-3 0  9997
2 54114  87.9280 356.4294 0001921 106.7884 253.3460 13.19727520142716
ONEWEB-0495             
1 54115U 22138C   25274.52665961  .00000094  00000+0  20144-3 0  9998
2 54115  87.9273 356.4263 0001361 118.8337 241.2933 13.19725869142704
ONEWEB-0497             
1 54116U 22138D   25274.46348181  .00000074  00000+0  15294-3 0  9992
2 54116  87.9288 356.4178 0001784 102.5497 257.5835 13.19726181142688
ONEWEB-0499             
1 54117U 22138E   25274.52207505 -.00009005  00000+0 -22570-1 0  9992
2 54117  87.9276 356.4221 0001792  98.2844 261.8492 13.19653667142709
ONEWEB-0500             
1 54118U 22138F   25274.52508664  .00000036  00000+0  56482-4 0  9998
2 54118  87.9283 356.4091 0001919 101.0895 259.0453 13.19726312142718
ONEWEB-0501             
1 54119U 22138G   25274.25182583  .00000092  00000+0  19801-3 0  9992
2 54119  87.9290 356.4557 0001492 107.2241 252.9055 13.19725935142656
ONEWEB-0502             
1 54120U 22138H   25274.46504713  .00000021  00000+0  19178-4 0  9990
2 54120  87.9286 356.3963 0001560 100.5676 259.5632 13.19727315142701
ONEWEB-0503             
1 54121U 22138J   25274.52981291 -.00000002  00000+0 -37803-4 0  9994
2 54121  87.9286 356.3876 0001792  91.0425 269.0913 13.19726078142701
ONEWEB-0504             
1 54122U 22138K   25274.51717204  .00000020  00000+0  17873-4 0  9998
2 54122  87.9289 356.4072 0001531  98.4511 261.6795 13.19727077142719
ONEWEB-0505             
1 54123U 22138L   25274.51403019  .00000046  00000+0  82542-4 0  9998
2 54123  87.9289 356.3961 0001336 107.8531 252.2748 13.19726117142691
ONEWEB-0506             
1 54124U 22138M   25274.48873966  .00000110  00000+0  24249-3 0  9998
2 54124  87.9288 356.3982 0001664 102.0455 258.0864 13.19727267142689
ONEWEB-0507             
1 54125U 22138N   25274.50927663  .00000077  00000+0  15894-3 0  9994
2 54125  87.9273 356.4419 0001683 105.3458 254.7861 13.19726835142736
ONEWEB-0508             
1 54126U 22138P   25274.50611022  .00000065  00000+0  12979-3 0  9992
2 54126  87.9282 356.4290 0001593 111.0925 249.0378 13.19727429142715
ONEWEB-0509             
1 54127U 22138Q   25274.25340756  .00000122  00000+0  27330-3 0  9999
2 54127  87.9288 356.4429 0001723 102.2463 257.8862 13.19727299142653
ONEWEB-0510             
1 54128U 22138R   25274.11903191  .00000060  00000+0  11657-3 0  9999
2 54128  87.9242 326.0989 0002415  91.4591 268.6819 13.20771753145086
ONEWEB-0511             
1 54129U 22138S   25274.47767913  .00000066  00000+0  13200-3 0  9991
2 54129  87.9287 356.4032 0001714  91.8232 268.3097 13.19728109142716
ONEWEB-0512             
1 54130U 22138T   25274.46979917  .00000014  00000+0  15676-5 0  9995
2 54130  87.9269 356.4413 0001410 102.8114 257.3177 13.19730283142685
ONEWEB-0513             
1 54131U 22138U   25274.50770214  .00000066  00000+0  13013-3 0  9998
2 54131  87.9292 356.3942 0001298  89.0529 271.0753 13.20316078142584
ONEWEB-0514             
1 54132U 22138V   25274.25814965  .00000081  00000+0  16877-3 0  9991
2 54132  87.9285 356.4605 0001925  97.3526 262.7826 13.19726173142677
ONEWEB-0515             
1 54133U 22138W   25274.40941384  .00000066  00000+0  13136-3 0  9993
2 54133  87.9252 326.0215 0002802 104.4007 255.7437 13.20773160145146
ONEWEB-0516             
1 54134U 22138X   25274.30869216  .00000012  00000+0 -35187-5 0  9990
2 54134  87.9270 356.4784 0001781 104.8823 255.2507 13.19726480142680
ONEWEB-0517             
1 54135U 22138Y   25274.51560558 -.00000007  00000+0 -49533-4 0  9995
2 54135  87.9290 356.4042 0001799  90.1744 269.9595 13.19726902142710
ONEWEB-0518             
1 54136U 22138Z   25274.45873286  .00000069  00000+0  13901-3 0  9999
2 54136  87.9276 356.4497 0001689 102.6728 257.4594 13.19726724142700
ONEWEB-0519             
1 54137U 22138AA  25274.25656583  .00000089  00000+0  18938-3 0  9994
2 54137  87.9287 356.4474 0001773  92.9193 267.2143 13.19727397142682
ONEWEB-0520             
1 54138U 22138AB  25274.51875257  .00000005  00000+0 -20023-4 0  9993
2 54138  87.9288 356.3993 0001587 106.3595 253.7713 13.19726773142701
ONEWEB-0521             
1 54139U 22138AC  25274.47612385  .00000091  00000+0  19621-3 0  9995
2 54139  87.9285 356.3938 0001883  92.3959 267.7390 13.19725536142640
ONEWEB-0522             
1 54140U 22138AD  25274.53138509  .00000033  00000+0  50102-4 0  9991
2 54140  87.9286 356.3838 0001800 102.5744 257.5590 13.19728333142699
ONEWEB-0523             
1 54141U 22138AE  25274.39680580  .00000148  00000+0  33152-3 0  9999
2 54141  87.9242 326.0488 0002751  91.1955 268.9494 13.20773489145146
ONEWEB-0524             
1 54142U 22138AF  25274.38575698  .00000057  00000+0  10739-3 0  9997
2 54142  87.9245 326.0519 0002708 110.5141 249.6283 13.20770484145144
ONEWEB-0525             
1 54143U 22138AG  25274.47453589  .00000043  00000+0  76209-4 0  9992
2 54143  87.9289 356.4169 0001586 107.1441 252.9866 13.19725351142703
ONEWEB-0526             
1 54144U 22138AH  25274.50769926  .00000008  00000+0 -11169-4 0  9998
2 54144  87.9288 356.3969 0001813 102.6681 257.4654 13.19726183142685
ONEWEB-0529             
1 54145U 22138AJ  25274.51086836 -.00000009  00000+0 -54737-4 0  9992
2 54145  87.9275 356.4344 0001684 105.8602 254.2716 13.19726302142704
ONEWEB-0531             
1 54146U 22138AK  25274.44729558  .00000062  00000+0  12080-3 0  9991
2 54146  87.9243 326.0305 0002830  96.8495 263.2961 13.20769859145153
ONEWEB-0535             
1 54147U 22138AL  25274.46820616 -.00000056  00000+0 -17322-3 0  9990
2 54147  87.9286 356.4003 0002168  94.1435 265.9945 13.19727149142716
ONEWEB-0536             
1 54148U 22138AM  25274.51043392 -.00000102  00000+0 -28393-3 0  9997
2 54148  87.9243 326.0650 0002936 100.0428 260.1037 13.20771120145153
ONEWEB-0527             
1 54642U 22166A   25274.51678891  .00000000  00000+0 -32037-4 0  9992
2 54642  87.9182 295.6193 0001920  95.5644 264.5709 13.21824207137361
ONEWEB-0528             
1 54643U 22166B   25274.29600450  .00000032  00000+0  45513-4 0  9991
2 54643  87.9184 295.6662 0001873  95.3052 264.8296 13.21823077137349
ONEWEB-0539             
1 54644U 22166C   25274.48367933  .00000126  00000+0  27293-3 0  9997
2 54644  87.9178 295.5954 0001777  87.4962 272.6376 13.21826229137361
ONEWEB-0540             
1 54645U 22166D   25274.33872995  .00000143  00000+0  31537-3 0  9996
2 54645  87.9181 295.6622 0001804  86.5613 273.5727 13.21825019137336
ONEWEB-0542             
1 54646U 22166E   25274.49313193  .00000023  00000+0  23454-4 0  9991
2 54646  87.9183 295.5912 0001875  81.7483 278.3863 13.21824880137362
ONEWEB-0545             
1 54647U 22166F   25274.08152908  .00000026  00000+0  32483-4 0  9997
2 54647  87.9180 295.6930 0001639  77.8389 282.2929 13.21824506137272
ONEWEB-0580             
1 54648U 22166G   25274.50890205  .00000083  00000+0  16935-3 0  9990
2 54648  87.9180 295.6057 0001930  81.1373 278.9980 13.21826298137378
ONEWEB-0582             
1 54649U 22166H   25274.47579023  .00000107  00000+0  22863-3 0  9993
2 54649  87.9177 295.6052 0001910  77.7641 282.3707 13.21824326137340
ONEWEB-0583             
1 54650U 22166J   25274.48683229  .00000136  00000+0  29832-3 0  9995
2 54650  87.9181 295.6288 0001819  89.2123 270.9220 13.21824567137350
ONEWEB-0584             
1 54651U 22166K   25274.35593083  .00000118  00000+0  25412-3 0  9990
2 54651  87.9182 295.6399 0002031  81.3153 278.8210 13.21825486137322
ONEWEB-0585             
1 54652U 22166L   25274.30546991  .00000172  00000+0  38493-3 0  9995
2 54652  87.9180 295.6356 0001983  95.8953 264.2407 13.21824708137320
ONEWEB-0586             
1 54653U 22166M   25274.46948200  .00000135  00000+0  29636-3 0  9990
2 54653  87.9180 295.6278 0001819  87.3768 272.7574 13.21825100137340
ONEWEB-0587             
1 54654U 22166N   25274.47893753  .00000132  00000+0  28848-3 0  9995
2 54654  87.9186 295.5743 0002101 103.6454 256.4914 13.21827945137506
